OBJECT_NAME,OBJECT_ID,EPOCH,MEAN_MOTION,ECCENTRICITY,INCLINATION,RA_OF_ASC_NODE,ARG_OF_PERICENTER,MEAN_ANOMALY,EPHEMERIS_TYPE,CLASSIFICATION_TYPE,NORAD_CAT_ID,ELEMENT_SET_NO,REV_AT_EPOCH,BSTAR,MEAN_MOTION_DOT,MEAN_MOTION_DDOT
STARLINK-37254,2026-070M,2026-06-09T16:30:07.300800,15.34420013,.00016364,53.1602,294.3026,60.0760,300.0405,0,U,68553,999,1065,.6330424E-3,.21086E-3,0
STARLINK-37255,2026-070N,2026-06-09T16:27:05.354496,15.34399455,.00016528,53.1601,294.2873,93.7341,266.3851,0,U,68554,999,1065,.41174683E-3,.1356E-3,0
STARLINK-37146,2026-070P,2026-06-09T16:33:08.985312,15.34413700,.00012002,53.1603,294.3092,91.1690,268.9450,0,U,68555,999,1065,.82248866E-3,.27527E-3,0
STARLINK-37144,2026-070Q,2026-06-09T16:21:01.359072,15.34383382,.00010401,53.1590,294.2518,107.6012,252.5104,0,U,68556,999,1065,.16234919E-3,.511E-4,0
STARLINK-37210,2026-070R,2026-06-09T16:24:03.596544,15.34406910,.00011268,53.1592,294.2671,89.7076,270.4056,0,U,68557,999,1065,.58794199E-3,.19544E-3,0
STARLINK-37227,2026-070S,2026-06-09T16:17:59.957088,15.34421689,.00011934,53.1591,294.2490,77.3355,282.7781,0,U,68558,999,1065,.5763372E-3,.19159E-3,0
STARLINK-37294,2026-070T,2026-06-09T14:41:10.354560,15.34407340,.00015923,53.1592,294.5399,97.9267,262.1917,0,U,68559,999,1064,.83593081E-3,.27979E-3,0
STARLINK-37291,2026-070U,2026-06-09T16:11:56.493888,15.34411846,.00012915,53.1595,294.2215,96.5319,263.5831,0,U,68560,999,1065,.60691743E-3,.20192E-3,0
STARLINK-37114,2026-070V,2026-06-09T16:08:54.420576,15.34406347,.00010288,53.1591,294.2040,106.3642,253.7474,0,U,68561,999,1065,.69863366E-3,.23306E-3,0
STARLINK-37233,2026-070W,2026-06-09T16:02:50.657568,15.34408285,.00011316,53.1585,294.1586,100.6870,259.4260,0,U,68562,999,1065,.80066501E-3,.26779E-3,0
STARLINK-36238,2026-070X,2026-06-09T16:05:52.573632,15.34407201,.00016097,53.1593,294.1912,102.8883,257.2299,0,U,68563,999,1065,.82046444E-3,.27452E-3,0
STARLINK-37008,2026-070Y,2026-06-09T15:59:48.791616,15.34419653,.00010392,53.1590,294.1502,78.8505,281.2614,0,U,68564,999,1065,.77218929E-3,.2582E-3,0
STARLINK-37161,2026-070Z,2026-06-09T15:56:46.923072,15.34402246,.00013745,53.1586,294.1332,98.6420,261.4739,0,U,68565,999,1065,.74145298E-3,.24759E-3,0
STARLINK-37212,2026-070AA,2026-06-09T15:53:45.624768,15.34392371,.00012883,53.1596,294.1353,95.4787,264.6362,0,U,68566,999,1065,.44930753E-3,.14831E-3,0
STARLINK-37261,2026-070AB,2026-06-09T15:50:43.794240,15.34400758,.00012809,53.1598,294.1075,87.6927,272.4222,0,U,68567,999,1065,.64151992E-3,.21361E-3,0
STARLINK-37283,2026-070AC,2026-06-09T15:44:46.576032,15.34347109,.00013751,53.1595,294.8165,96.7286,263.3873,0,U,68568,999,1064,.74037174E-3,.24679E-3,0
STARLINK-37256,2026-070AD,2026-06-09T15:47:42.525312,15.34436557,.00011016,53.1583,294.1280,99.4040,260.7088,0,U,68569,999,1065,.7219338E-3,.24122E-3,0
STARLINK-37228,2026-070AE,2026-06-09T17:15:33.817824,15.34417851,.00009069,53.1589,294.5075,72.0540,288.0561,0,U,68570,999,1065,.58742506E-3,.19534E-3,0
MERIDIAN-M 21L,2026-071A,2026-06-09T05:42:12.400992,2.00618265,.7182755,62.7986,229.7855,285.1896,11.2766,0,U,68571,999,135,0,.146E-5,0
KUIPER-00131,2026-072A,2026-06-09T11:00:38.861568,14.79924684,.00004757,51.9002,229.8247,87.7385,272.3632,0,U,68573,999,997,.35773371E-4,.52E-6,0
KUIPER-00189,2026-072B,2026-06-09T11:34:51.138048,14.76371270,.00010419,51.8979,232.1342,313.3776,46.7098,0,U,68574,999,994,.24985964E-3,.1537E-4,0
KUIPER-00192,2026-072C,2026-06-09T11:04:29.388000,14.79922785,.00006002,51.8990,227.3111,87.2640,272.8391,0,U,68575,999,1001,.38843389E-3,.2741E-4,0
KUIPER-00193,2026-072D,2026-06-09T22:00:01.999584,14.97394655,.00023947,51.9252,215.2639,33.1746,178.3342,0,U,68576,999,543,-.33436349E-4,-.652E-5,0
KUIPER-00194,2026-072E,2026-06-09T22:00:01.999584,14.79981301,.00005319,51.9010,222.8012,226.8268,206.8069,0,U,68577,999,562,-.13953961E-2,-.10854E-3,0
KUIPER-00229,2026-072F,2026-06-09T11:41:29.550912,14.76335788,.00018155,51.9013,229.6377,193.9912,166.0999,0,U,68578,999,998,.23760185E-3,.145E-4,0
KUIPER-00230,2026-072G,2026-06-09T10:56:42.961056,15.37752022,.00029989,51.8756,214.1258,1.0893,359.0099,0,U,68579,999,1019,.31495357E-3,.11489E-3,0
KUIPER-00231,2026-072H,2026-06-09T10:50:10.173696,15.37749923,.00031816,51.8741,214.0944,8.1772,351.9267,0,U,68580,999,1019,.50945992E-3,.18845E-3,0
KUIPER-00234,2026-072J,2026-06-09T09:10:18.683616,14.76524069,.00016998,51.8988,224.3115,144.2247,215.8828,0,U,68581,999,1004,.23607811E-3,.1446E-4,0
KUIPER-00236,2026-072K,2026-06-09T09:39:26.198784,15.37408164,.00033103,51.8768,214.5162,349.1859,10.9056,0,U,68582,999,1018,.58039761E-3,.2129E-3,0
KUIPER-00244,2026-072L,2026-06-09T22:00:01.999584,15.05833150,.00033519,51.9017,213.6011,24.3892,279.9014,0,U,68583,999,582,.711716E-4,.763E-5,0
KUIPER-00253,2026-072M,2026-06-09T22:00:01.999584,14.92357753,.0006475,51.8959,215.7226,23.8893,171.6730,0,U,68584,999,484,-.17695754E-2,-.18494E-3,0
KUIPER-00254,2026-072N,2026-06-09T22:00:01.999584,14.83379140,.0007626,51.9026,217.8497,44.8029,155.2674,0,U,68585,999,460,-.4451486E-2,-.3691E-3,0
KUIPER-00263,2026-072P,2026-06-09T10:46:08.669280,15.38084616,.00019282,51.8754,214.0791,351.5685,8.5269,0,U,68586,999,1019,.48197856E-3,.18002E-3,0
KUIPER-00269,2026-072Q,2026-06-09T10:49:01.122816,15.37294611,.00057717,51.8736,214.0854,346.5979,13.4854,0,U,68587,999,1019,.59036198E-3,.21589E-3,0
KUIPER-00272,2026-072R,2026-06-09T11:53:12.033024,14.79910886,.00008325,51.8976,227.1575,55.1280,304.9761,0,U,68588,999,1001,.35379697E-3,.2476E-4,0
KUIPER-00285,2026-072S,2026-06-09T10:54:51.623424,15.38194410,.00076318,51.8726,214.1079,353.6428,6.4461,0,U,68589,999,1019,.4571772E-3,.17127E-3,0
KUIPER-00286,2026-072T,2026-06-09T10:46:51.677472,15.37450547,.00050297,51.8726,214.0730,344.0970,15.9858,0,U,68590,999,1019,.59647286E-3,.21927E-3,0
KUIPER-00289,2026-072U,2026-06-09T22:00:01.999584,15.18996353,.001161,51.8764,213.2199,13.3916,26.0702,0,U,68591,999,576,-.1075215E+0,-.205785E-1,0
KUIPER-00290,2026-072V,2026-06-09T22:00:01.999584,15.22120259,.00127702,51.8756,213.1073,4.6062,141.5274,0,U,68592,999,161,-.55583337E-1,-.1191906E-1,0
KUIPER-00293,2026-072W,2026-06-09T22:00:01.999584,14.79907201,.00036895,51.8970,220.2964,35.5088,22.1402,0,U,68593,999,324,.21024358E-3,.138E-4,0
KUIPER-00294,2026-072X,2026-06-09T22:00:01.999584,15.31530436,.00113961,51.8697,212.6342,0.5673,13.3931,0,U,68594,999,595,.20918952E-3,.6109E-4,0
KUIPER-00296,2026-072Y,2026-06-09T10:05:00.154752,15.38071739,.00095907,51.8697,214.5980,359.4426,0.6549,0,U,68595,999,1018,.55365903E-3,.20762E-3,0
KUIPER-00297,2026-072Z,2026-06-09T22:00:01.999584,14.76426352,.00019414,51.8985,219.1748,103.2637,346.7445,0,U,68596,999,387,-.10306536E-2,-.7439E-4,0
KUIPER-00300,2026-072AA,2026-06-09T22:00:01.999584,14.86856403,.00103074,51.8994,216.4423,23.6851,345.4358,0,U,68597,999,447,-.31371263E-2,-.28422E-3,0
KUIPER-00301,2026-072AB,2026-06-09T10:07:13.398240,15.38058734,.00101621,51.8668,214.5833,3.4427,356.6628,0,U,68598,999,1018,.68486846E-3,.25788E-3,0
KUIPER-00304,2026-072AC,2026-06-09T10:19:46.986816,15.37778270,.00121183,51.8657,214.6454,358.4839,1.6109,0,U,68599,999,1018,.66372612E-3,.24764E-3,0
KUIPER-00317,2026-072AD,2026-06-09T22:00:01.999584,15.27396256,.0010655,51.8745,212.3866,357.1476,114.7449,0,U,68600,999,130,.86212119E-3,.23206E-3,0
KUIPER-00320,2026-072AE,2026-06-09T22:00:01.999584,15.05481294,.00118361,51.8839,214.2469,2.0027,219.2202,0,U,68601,999,520,-.29373383E-2,-.42809E-3,0
STARLINK-37135,2026-073A,2026-06-09T19:34:25.029408,15.33449333,.00015573,97.2854,0.2792,64.7636,295.3768,0,U,68602,999,1000,.33019406E-3,.10601E-3,0
STARLINK-37189,2026-073B,2026-06-09T22:00:01.999584,15.33380598,.00009563,97.2853,0.3494,100.3040,22.6940,0,U,68603,999,595,.33434556E-2,.109216E-2,0
STARLINK-37130,2026-073C,2026-06-09T12:11:59.720640,15.33457528,.00023629,97.2853,359.9347,76.1558,283.9948,0,U,68604,999,995,.48822283E-3,.15726E-3,0
STARLINK-37131,2026-073D,2026-06-09T22:00:01.999584,15.33368529,.0001481,97.2858,0.3305,90.4276,347.5895,0,U,68605,999,595,.34961855E-2,.114242E-2,0
STARLINK-37253,2026-073E,2026-06-09T12:39:24.353280,15.33460679,.0001634,97.2864,0.0624,86.7785,273.3645,0,U,68606,999,996,.5856704E-3,.18889E-3,0
STARLINK-37246,2026-073F,2026-06-09T22:00:01.999584,15.33358001,.00007884,97.2856,0.4534,77.3853,300.5431,0,U,68607,999,594,.33423403E-2,.1091E-2,0
STARLINK-37243,2026-073G,2026-06-09T19:10:55.827264,15.33456619,.00011452,97.2871,0.3081,79.3620,280.7752,0,U,68608,999,1000,.4123287E-3,.13265E-3,0
STARLINK-37250,2026-073H,2026-06-09T12:19:49.495584,15.33459871,.00018502,97.2853,359.9291,81.1070,279.0382,0,U,68609,999,995,.84886351E-3,.27443E-3,0
STARLINK-37105,2026-073J,2026-06-09T19:03:05.924448,15.33456310,.00014484,97.2865,0.3100,99.3078,260.8329,0,U,68610,999,1000,.45796462E-3,.14744E-3,0
STARLINK-37177,2026-073K,2026-06-09T13:06:48.402720,15.33450978,.00019777,97.2856,0.0383,95.2058,264.9410,0,U,68611,999,996,.41248788E-3,.13268E-3,0
STARLINK-36386,2026-073L,2026-06-09T11:56:21.284448,15.33413988,.00021951,97.2863,359.9514,96.4489,263.7004,0,U,68612,999,995,.32810688E-3,.10522E-3,0
STARLINK-36187,2026-073M,2026-06-09T20:13:31.941120,15.34128526,.00015844,97.2851,0.3971,127.1291,233.0097,0,U,68613,999,1001,-.30354328E-1,-.918238E-2,0
STARLINK-37170,2026-073N,2026-06-09T19:18:45.940896,15.33451569,.00020053,97.2870,0.2966,88.1438,272.0035,0,U,68614,999,1000,.50876397E-3,.16389E-3,0
STARLINK-37176,2026-073P,2026-06-09T12:35:28.980672,15.33461138,.00018755,97.2859,0.0656,93.8268,266.3189,0,U,68615,999,996,.51294302E-3,.1653E-3,0
STARLINK-37152,2026-073Q,2026-06-09T22:00:01.999584,15.33387395,.00018455,97.2850,0.4097,108.7379,164.2049,0,U,68616,999,595,.27588007E-2,.89895E-3,0
STARLINK-37186,2026-073R,2026-06-09T12:08:04.659936,15.33462219,.00015481,97.2849,359.9393,90.0729,270.0691,0,U,68617,999,995,.46714007E-3,.15044E-3,0
